{
"type": "FeatureCollection",
"name": "schools",
"crs": { "type": "name", "properties": { "name": "urn:ogc:def:crs:OGC:1.3:CRS84" } },
"features": [
{ "type": "Feature", "properties": { "index": 0, "element": "way", "id": 540443082, "amenity": "school", "ele": null, "gnis:feature_id": null, "name": "Daycroft Montessori School", "addr:city": null, "addr:country": null, "addr:housenumber": "100", "addr:postcode": null, "addr:state": null, "addr:street": "Oakbrook Drive", "operator": null, "operator:short": null, "operator:type": null, "operator:wikidata": null, "operator:wikipedia": null, "wikidata": null, "wikipedia": null, "email": null, "fax": null, "phone": null, "short_name": null, "website": "https://www.daycroft.org/", "localwiki": null, "grades": null, "building": null, "check_date": null, "religion": null, "name:etymology:wikidata": null, "official_name": null, "description": "Preschool and kindergarten.", "denomination": null, "note": null, "type": null }, "geometry": { "type": "Polygon", "coordinates": [ [ [ -83.748951, 42.2461971 ], [ -83.7488195, 42.246209 ], [ -83.7486854, 42.2462229 ], [ -83.7485003, 42.2462606 ], [ -83.7483314, 42.2463123 ], [ -83.7481919, 42.2463559 ], [ -83.7480712, 42.2464076 ], [ -83.747685, 42.2461971 ], [ -83.7476797, 42.2459531 ], [ -83.7490824, 42.245929 ], [ -83.7490904, 42.2461872 ], [ -83.748951, 42.2461971 ] ] ] } },
{ "type": "Feature", "properties": { "index": 1, "element": "way", "id": 1063398698, "amenity": "school", "ele": null, "gnis:feature_id": null, "name": null, "addr:city": null, "addr:country": null, "addr:housenumber": null, "addr:postcode": null, "addr:state": null, "addr:street": null, "operator": null, "operator:short": null, "operator:type": null, "operator:wikidata": null, "operator:wikipedia": null, "wikidata": null, "wikipedia": null, "email": null, "fax": null, "phone": null, "short_name": null, "website": null, "localwiki": null, "grades": null, "building": null, "check_date": null, "religion": null, "name:etymology:wikidata": null, "official_name": null, "description": null, "denomination": null, "note": null, "type": null }, "geometry": { "type": "Polygon", "coordinates": [ [ [ -83.7197558, 42.2471669 ], [ -83.7197744, 42.2471984 ], [ -83.7197744, 42.2472629 ], [ -83.7197223, 42.2472629 ], [ -83.7191767, 42.2469368 ], [ -83.719398523985205, 42.246881182009552 ], [ -83.719479, 42.247 ], [ -83.71975271858318, 42.247099597347059 ], [ -83.7197558, 42.2471669 ] ] ] } },
{ "type": "Feature", "properties": { "index": 2, "element": "way", "id": 306842344, "amenity": "school", "ele": null, "gnis:feature_id": null, "name": "Pathways Campus", "addr:city": "Ann Arbor", "addr:country": null, "addr:housenumber": "2800", "addr:postcode": "48104", "addr:state": null, "addr:street": "Stone School Road", "operator": "Ann Arbor Public Schools", "operator:short": "AAPS", "operator:type": "public", "operator:wikidata": "Q4766227", "operator:wikipedia": "en:Ann Arbor Public Schools", "wikidata": null, "wikipedia": null, "email": null, "fax": null, "phone": null, "short_name": null, "website": "https://www.a2schools.org/pathways.home/home", "localwiki": null, "grades": null, "building": null, "check_date": null, "religion": null, "name:etymology:wikidata": null, "official_name": null, "description": null, "denomination": null, "note": null, "type": null }, "geometry": { "type": "Polygon", "coordinates": [ [ [ -83.7216372, 42.2470498 ], [ -83.7226062, 42.246211 ], [ -83.7230516, 42.2469973 ], [ -83.7223316, 42.2473172 ], [ -83.7205038, 42.2481292 ], [ -83.7203531, 42.2479397 ], [ -83.7202535, 42.2477866 ], [ -83.7201884, 42.2476482 ], [ -83.7201492, 42.2475465 ], [ -83.7201061, 42.2473394 ], [ -83.720094452019609, 42.247142409941596 ], [ -83.720626, 42.247141 ], [ -83.721096, 42.24717 ], [ -83.721472, 42.247184 ], [ -83.721469530147274, 42.247053097805477 ], [ -83.7216372, 42.2470498 ] ] ] } },
{ "type": "Feature", "properties": { "index": 3, "element": "way", "id": 513172207, "amenity": "school", "ele": null, "gnis:feature_id": null, "name": "Preschool and Family Center", "addr:city": null, "addr:country": null, "addr:housenumber": "2775", "addr:postcode": null, "addr:state": null, "addr:street": "Boardwalk Drive", "operator": "Ann Arbor Public Schools", "operator:short": "AAPS", "operator:type": "public", "operator:wikidata": "Q4766227", "operator:wikipedia": "en:Ann Arbor Public Schools", "wikidata": null, "wikipedia": null, "email": null, "fax": null, "phone": null, "short_name": null, "website": null, "localwiki": null, "grades": null, "building": null, "check_date": "2026-03-13", "religion": null, "name:etymology:wikidata": null, "official_name": "W. Scott Westerman, Jr. Preschool and Family Center", "description": null, "denomination": null, "note": null, "type": null }, "geometry": { "type": "Polygon", "coordinates": [ [ [ -83.7346764, 42.2471192 ], [ -83.7346819, 42.2472423 ], [ -83.7346978, 42.2473655 ], [ -83.7347193, 42.2474869 ], [ -83.7347461, 42.2476123 ], [ -83.7347781, 42.2477398 ], [ -83.7348261, 42.2478793 ], [ -83.7348794, 42.248017 ], [ -83.7349304, 42.2481407 ], [ -83.7349765, 42.2482586 ], [ -83.7338689, 42.2482892 ], [ -83.7335926, 42.2482997 ], [ -83.7334263, 42.2479801 ], [ -83.7332681, 42.2476505 ], [ -83.7331259, 42.2473169 ], [ -83.7329918, 42.2469754 ], [ -83.7346721, 42.2469484 ], [ -83.7346764, 42.2471192 ] ] ] } },
{ "type": "Feature", "properties": { "index": 4, "element": "way", "id": 329793214, "amenity": "school", "ele": null, "gnis:feature_id": null, "name": "Central Academy", "addr:city": null, "addr:country": null, "addr:housenumber": "2459", "addr:postcode": null, "addr:state": null, "addr:street": "South Industrial Highway", "operator": null, "operator:short": null, "operator:type": null, "operator:wikidata": null, "operator:wikipedia": null, "wikidata": null, "wikipedia": null, "email": null, "fax": null, "phone": null, "short_name": null, "website": null, "localwiki": null, "grades": null, "building": null, "check_date": null, "religion": null, "name:etymology:wikidata": null, "official_name": null, "description": null, "denomination": null, "note": null, "type": null }, "geometry": { "type": "Polygon", "coordinates": [ [ [ -83.7296809, 42.250701 ], [ -83.7296617, 42.2499544 ], [ -83.7319741, 42.2498889 ], [ -83.7323013, 42.2506235 ], [ -83.7296809, 42.250701 ] ] ] } },
{ "type": "Feature", "properties": { "index": 5, "element": "way", "id": 330876784, "amenity": "school", "ele": null, "gnis:feature_id": null, "name": "Clonlara School", "addr:city": "Ann Arbor", "addr:country": null, "addr:housenumber": "1289", "addr:postcode": "48104", "addr:state": "MI", "addr:street": "Jewett Avenue", "operator": null, "operator:short": null, "operator:type": null, "operator:wikidata": null, "operator:wikipedia": null, "wikidata": "Q5135034", "wikipedia": null, "email": null, "fax": null, "phone": null, "short_name": null, "website": null, "localwiki": null, "grades": null, "building": null, "check_date": null, "religion": null, "name:etymology:wikidata": null, "official_name": null, "description": null, "denomination": null, "note": null, "type": null }, "geometry": { "type": "Polygon", "coordinates": [ [ [ -83.7319604, 42.2538058 ], [ -83.7319691, 42.2545353 ], [ -83.7308942, 42.2547056 ], [ -83.730689, 42.2540043 ], [ -83.7319604, 42.2538058 ] ] ] } },
{ "type": "Feature", "properties": { "index": 6, "element": "way", "id": 306842347, "amenity": "school", "ele": null, "gnis:feature_id": null, "name": "Pattengill Elementary School", "addr:city": null, "addr:country": null, "addr:housenumber": "2100", "addr:postcode": null, "addr:state": null, "addr:street": "Crestland Drive", "operator": null, "operator:short": null, "operator:type": null, "operator:wikidata": null, "operator:wikipedia": null, "wikidata": null, "wikipedia": null, "email": null, "fax": null, "phone": null, "short_name": "Pattengill School", "website": null, "localwiki": null, "grades": null, "building": null, "check_date": null, "religion": null, "name:etymology:wikidata": null, "official_name": null, "description": null, "denomination": null, "note": null, "type": null }, "geometry": { "type": "Polygon", "coordinates": [ [ [ -83.720412, 42.254707 ], [ -83.722832, 42.2542055 ], [ -83.7234138, 42.2540849 ], [ -83.7237821, 42.2548192 ], [ -83.7203273, 42.2556925 ], [ -83.7200113, 42.2559264 ], [ -83.7198865, 42.2560228 ], [ -83.7197084, 42.2561068 ], [ -83.7195861, 42.2560466 ], [ -83.7193448, 42.2559015 ], [ -83.7189868, 42.2556337 ], [ -83.7189613, 42.2547351 ], [ -83.720412, 42.254707 ] ] ] } },
{ "type": "Feature", "properties": { "index": 7, "element": "way", "id": 545576316, "amenity": "school", "ele": "265", "gnis:feature_id": "636638", "name": "Saint Francis of Assisi School", "addr:city": null, "addr:country": null, "addr:housenumber": null, "addr:postcode": null, "addr:state": null, "addr:street": null, "operator": null, "operator:short": null, "operator:type": null, "operator:wikidata": null, "operator:wikipedia": null, "wikidata": null, "wikipedia": null, "email": null, "fax": null, "phone": null, "short_name": null, "website": null, "localwiki": null, "grades": null, "building": null, "check_date": null, "religion": "christian", "name:etymology:wikidata": null, "official_name": null, "description": null, "denomination": "roman_catholic", "note": null, "type": null }, "geometry": { "type": "Polygon", "coordinates": [ [ [ -83.7168422, 42.2607574 ], [ -83.7165445, 42.260668 ], [ -83.7162602, 42.2605668 ], [ -83.7159169, 42.260412 ], [ -83.7171668, 42.2589569 ], [ -83.7177569, 42.2592407 ], [ -83.7178481, 42.2592725 ], [ -83.7179393, 42.2592924 ], [ -83.7180492, 42.2592983 ], [ -83.7181217, 42.2596259 ], [ -83.7171212, 42.2608249 ], [ -83.7168422, 42.2607574 ] ] ] } },
{ "type": "Feature", "properties": { "index": 8, "element": "way", "id": 306766738, "amenity": "school", "ele": null, "gnis:feature_id": null, "name": "Tappan Middle School", "addr:city": "Ann Arbor", "addr:country": null, "addr:housenumber": "2251", "addr:postcode": "48104", "addr:state": "MI", "addr:street": "East Stadium Boulevard", "operator": "Ann Arbor Public Schools", "operator:short": "AAPS", "operator:type": "public", "operator:wikidata": "Q4766227", "operator:wikipedia": "en:Ann Arbor Public Schools", "wikidata": null, "wikipedia": null, "email": null, "fax": null, "phone": null, "short_name": null, "website": null, "localwiki": null, "grades": null, "building": null, "check_date": null, "religion": null, "name:etymology:wikidata": null, "official_name": null, "description": null, "denomination": null, "note": null, "type": null }, "geometry": { "type": "Polygon", "coordinates": [ [ [ -83.7200327, 42.2613896 ], [ -83.7199241, 42.2614938 ], [ -83.719744, 42.2616223 ], [ -83.718859, 42.2616219 ], [ -83.7188629, 42.262422 ], [ -83.7170346, 42.2635672 ], [ -83.7143217, 42.2614637 ], [ -83.7149488, 42.261005 ], [ -83.7154005, 42.2606551 ], [ -83.7155196, 42.2605205 ], [ -83.7159289, 42.2607345 ], [ -83.7161273, 42.2608368 ], [ -83.7163995, 42.2609443 ], [ -83.7166733, 42.2610353 ], [ -83.716999, 42.2611155 ], [ -83.7172633, 42.2611623 ], [ -83.7175316, 42.261206 ], [ -83.7179945, 42.2612544 ], [ -83.7184958, 42.2612784 ], [ -83.7190566, 42.2612852 ], [ -83.7201084, 42.261261 ], [ -83.7200327, 42.2613896 ] ] ] } },
{ "type": "Feature", "properties": { "index": 9, "element": "way", "id": 304413405, "amenity": "school", "ele": "260", "gnis:feature_id": null, "name": "Burns Park Elementary School", "addr:city": "Ann Arbor", "addr:country": null, "addr:housenumber": null, "addr:postcode": null, "addr:state": null, "addr:street": null, "operator": "Ann Arbor Public Schools", "operator:short": "AAPS", "operator:type": "public", "operator:wikidata": "Q4766227", "operator:wikipedia": "en:Ann Arbor Public Schools", "wikidata": null, "wikipedia": null, "email": null, "fax": null, "phone": null, "short_name": null, "website": null, "localwiki": null, "grades": null, "building": null, "check_date": "2025-02-20", "religion": null, "name:etymology:wikidata": null, "official_name": null, "description": null, "denomination": null, "note": null, "type": null }, "geometry": { "type": "Polygon", "coordinates": [ [ [ -83.7298646, 42.2658917 ], [ -83.7298472, 42.264935 ], [ -83.7299622, 42.2649316 ], [ -83.730741, 42.2649177 ], [ -83.7307755, 42.26686 ], [ -83.7298826, 42.266877 ], [ -83.7298646, 42.2658917 ] ] ] } },
{ "type": "Feature", "properties": { "index": 10, "element": "way", "id": 387275816, "amenity": "school", "ele": null, "gnis:feature_id": null, "name": "Bryant Elementary School", "addr:city": "Ann Arbor", "addr:country": null, "addr:housenumber": "2150", "addr:postcode": "48108", "addr:state": "MI", "addr:street": "Santa Rosa Drive", "operator": "Ann Arbor Public Schools", "operator:short": "AAPS", "operator:type": "public", "operator:wikidata": "Q4766227", "operator:wikipedia": null, "wikidata": null, "wikipedia": null, "email": null, "fax": null, "phone": null, "short_name": null, "website": null, "localwiki": null, "grades": null, "building": null, "check_date": null, "religion": null, "name:etymology:wikidata": null, "official_name": null, "description": null, "denomination": null, "note": null, "type": null }, "geometry": { "type": "Polygon", "coordinates": [ [ [ -83.7151891, 42.2335746 ], [ -83.7149933, 42.2335786 ], [ -83.7148779, 42.2335814 ], [ -83.7147303, 42.2335849 ], [ -83.7146682, 42.2319146 ], [ -83.716494342165149, 42.23188192278927 ], [ -83.716499, 42.232017 ], [ -83.716511886874173, 42.232016898528549 ], [ -83.7165111, 42.2320196 ], [ -83.7165675, 42.2335467 ], [ -83.7151891, 42.2335746 ] ] ] } },
{ "type": "Feature", "properties": { "index": 11, "element": "way", "id": 306842342, "amenity": "school", "ele": null, "gnis:feature_id": null, "name": "Scarlett and Mitchell Schools", "addr:city": null, "addr:country": null, "addr:housenumber": null, "addr:postcode": null, "addr:state": null, "addr:street": null, "operator": null, "operator:short": null, "operator:type": null, "operator:wikidata": null, "operator:wikipedia": null, "wikidata": null, "wikipedia": null, "email": null, "fax": null, "phone": null, "short_name": null, "website": null, "localwiki": null, "grades": null, "building": null, "check_date": null, "religion": null, "name:etymology:wikidata": null, "official_name": null, "description": null, "denomination": null, "note": null, "type": null }, "geometry": { "type": "Polygon", "coordinates": [ [ [ -83.6909279, 42.2342747 ], [ -83.6910757, 42.2342711 ], [ -83.6943475, 42.2341906 ], [ -83.6949317, 42.2341762 ], [ -83.6950231, 42.2378226 ], [ -83.6950336, 42.2382436 ], [ -83.6933225, 42.2382796 ], [ -83.6927313, 42.2382921 ], [ -83.6927285, 42.2379437 ], [ -83.6927282, 42.2379078 ], [ -83.6900956, 42.2378958 ], [ -83.6900876, 42.2354553 ], [ -83.69008, 42.2342956 ], [ -83.6909279, 42.2342747 ] ] ] } },
{ "type": "Feature", "properties": { "index": 12, "element": "way", "id": 389099986, "amenity": "school", "ele": null, "gnis:feature_id": null, "name": "Foundations Preschool", "addr:city": null, "addr:country": null, "addr:housenumber": null, "addr:postcode": null, "addr:state": null, "addr:street": null, "operator": null, "operator:short": null, "operator:type": null, "operator:wikidata": null, "operator:wikipedia": null, "wikidata": null, "wikipedia": null, "email": null, "fax": null, "phone": null, "short_name": null, "website": null, "localwiki": null, "grades": null, "building": null, "check_date": null, "religion": null, "name:etymology:wikidata": null, "official_name": null, "description": null, "denomination": null, "note": null, "type": null }, "geometry": { "type": "Polygon", "coordinates": [ [ [ -83.6858984, 42.2446924 ], [ -83.6854488, 42.2447038 ], [ -83.6854402, 42.2445083 ], [ -83.6853093, 42.2441943 ], [ -83.6853047, 42.2437698 ], [ -83.685872651345093, 42.24376598496341 ], [ -83.685707, 42.243892 ], [ -83.68534, 42.243946 ], [ -83.685516, 42.244425 ], [ -83.685895160937363, 42.244463316677184 ], [ -83.6858984, 42.2446924 ] ] ] } },
{ "type": "Feature", "properties": { "index": 13, "element": "way", "id": 306768633, "amenity": "school", "ele": null, "gnis:feature_id": null, "name": "Pittsfield Elementary School", "addr:city": null, "addr:country": null, "addr:housenumber": null, "addr:postcode": null, "addr:state": null, "addr:street": null, "operator": null, "operator:short": null, "operator:type": null, "operator:wikidata": null, "operator:wikipedia": null, "wikidata": null, "wikipedia": null, "email": null, "fax": null, "phone": null, "short_name": null, "website": null, "localwiki": null, "grades": null, "building": null, "check_date": null, "religion": null, "name:etymology:wikidata": null, "official_name": null, "description": null, "denomination": null, "note": null, "type": null }, "geometry": { "type": "Polygon", "coordinates": [ [ [ -83.6924972, 42.2496409 ], [ -83.6924399, 42.2497557 ], [ -83.6924006, 42.2498911 ], [ -83.6923702, 42.2500302 ], [ -83.6923604, 42.2501164 ], [ -83.6923644, 42.2502207 ], [ -83.6923872, 42.250313 ], [ -83.6924399, 42.2504215 ], [ -83.6925041, 42.2505463 ], [ -83.6920881, 42.2506306 ], [ -83.6916744, 42.2507196 ], [ -83.691048, 42.250898 ], [ -83.6909677, 42.2506513 ], [ -83.690514, 42.2507523 ], [ -83.6904872, 42.2500899 ], [ -83.690502, 42.2493821 ], [ -83.6909705, 42.2494326 ], [ -83.6910105, 42.2492326 ], [ -83.6912137, 42.2492816 ], [ -83.6914013, 42.2493139 ], [ -83.6916308, 42.24935 ], [ -83.691839, 42.2493693 ], [ -83.6920425, 42.2493937 ], [ -83.6921538, 42.2494027 ], [ -83.6923168, 42.2494298 ], [ -83.6924596, 42.2494771 ], [ -83.6925267, 42.2495039 ], [ -83.6925724, 42.2495318 ], [ -83.6924972, 42.2496409 ] ] ] } },
{ "type": "Feature", "properties": { "index": 14, "element": "way", "id": 306768193, "amenity": "school", "ele": null, "gnis:feature_id": null, "name": "Allen Elementary School", "addr:city": null, "addr:country": null, "addr:housenumber": "2560", "addr:postcode": null, "addr:state": null, "addr:street": "Towner Boulevard", "operator": null, "operator:short": null, "operator:type": null, "operator:wikidata": null, "operator:wikipedia": null, "wikidata": null, "wikipedia": null, "email": null, "fax": null, "phone": null, "short_name": "Allen School", "website": null, "localwiki": null, "grades": null, "building": null, "check_date": null, "religion": null, "name:etymology:wikidata": null, "official_name": null, "description": null, "denomination": null, "note": null, "type": null }, "geometry": { "type": "Polygon", "coordinates": [ [ [ -83.7097454, 42.2521443 ], [ -83.7097322, 42.2516862 ], [ -83.7097124, 42.2515733 ], [ -83.7096384, 42.2514162 ], [ -83.7093433, 42.2509635 ], [ -83.7093, 42.2509306 ], [ -83.7091851, 42.2508642 ], [ -83.7090476, 42.2508187 ], [ -83.7090114, 42.2501404 ], [ -83.7116491, 42.2500606 ], [ -83.7117137, 42.2520984 ], [ -83.7097454, 42.2521443 ] ] ] } },
{ "type": "Feature", "properties": { "index": 15, "element": "way", "id": 387845329, "amenity": "school", "ele": null, "gnis:feature_id": null, "name": "Summers-Knoll School", "addr:city": null, "addr:country": null, "addr:housenumber": null, "addr:postcode": null, "addr:state": null, "addr:street": "Platt Road", "operator": null, "operator:short": null, "operator:type": null, "operator:wikidata": null, "operator:wikipedia": null, "wikidata": null, "wikipedia": null, "email": null, "fax": null, "phone": null, "short_name": null, "website": null, "localwiki": null, "grades": null, "building": null, "check_date": null, "religion": null, "name:etymology:wikidata": null, "official_name": null, "description": null, "denomination": null, "note": null, "type": null }, "geometry": { "type": "Polygon", "coordinates": [ [ [ -83.6993485, 42.2562335 ], [ -83.6993485, 42.2560775 ], [ -83.6992292, 42.2560795 ], [ -83.6992181, 42.255638 ], [ -83.6995289, 42.2556359 ], [ -83.6995094, 42.2549973 ], [ -83.7002447, 42.2549891 ], [ -83.7002919, 42.2562171 ], [ -83.6993485, 42.2562335 ] ] ] } },
{ "type": "Feature", "properties": { "index": 16, "element": "way", "id": 306855295, "amenity": "school", "ele": "270", "gnis:feature_id": null, "name": "Saint Paul Lutheran School", "addr:city": null, "addr:country": null, "addr:housenumber": "495", "addr:postcode": null, "addr:state": null, "addr:street": "Earhart Road", "operator": null, "operator:short": null, "operator:type": null, "operator:wikidata": null, "operator:wikipedia": null, "wikidata": null, "wikipedia": null, "email": null, "fax": null, "phone": null, "short_name": "Saint Paul School", "website": null, "localwiki": null, "grades": null, "building": null, "check_date": null, "religion": null, "name:etymology:wikidata": null, "official_name": null, "description": null, "denomination": null, "note": null, "type": null }, "geometry": { "type": "Polygon", "coordinates": [ [ [ -83.6854979, 42.2800018 ], [ -83.687236, 42.2799621 ], [ -83.6872775, 42.2808549 ], [ -83.6824403, 42.2809747 ], [ -83.6823505, 42.2771449 ], [ -83.6853747, 42.27709 ], [ -83.6854979, 42.2800018 ] ] ] } },
{ "type": "Feature", "properties": { "index": 17, "element": "way", "id": 304114710, "amenity": "school", "ele": "240", "gnis:feature_id": null, "name": "Huron High School", "addr:city": "Ann Arbor", "addr:country": null, "addr:housenumber": "2727", "addr:postcode": "48105", "addr:state": "MI", "addr:street": "Fuller Road", "operator": "Ann Arbor Public Schools", "operator:short": "AAPS", "operator:type": "public", "operator:wikidata": "Q4766227", "operator:wikipedia": null, "wikidata": "Q5946889", "wikipedia": null, "email": "huron@a2schools.org", "fax": "+1-734-994-2048", "phone": "+1-734-994-2040", "short_name": null, "website": "https://huron.a2schools.org/", "localwiki": null, "grades": "9-12", "building": null, "check_date": null, "religion": null, "name:etymology:wikidata": null, "official_name": null, "description": null, "denomination": null, "note": null, "type": null }, "geometry": { "type": "Polygon", "coordinates": [ [ [ -83.700725, 42.2781148 ], [ -83.7032824, 42.2793631 ], [ -83.7075286, 42.2814995 ], [ -83.7066236, 42.2825101 ], [ -83.7058949, 42.2827439 ], [ -83.7052281, 42.2829767 ], [ -83.7044703, 42.2825906 ], [ -83.7040367, 42.2831149 ], [ -83.7033015, 42.2831188 ], [ -83.7026332, 42.2831798 ], [ -83.7020772, 42.2833352 ], [ -83.7015763, 42.2836412 ], [ -83.7011838, 42.2830574 ], [ -83.7008419, 42.2825303 ], [ -83.7005504, 42.2820342 ], [ -83.700306, 42.281554 ], [ -83.7000597, 42.2810297 ], [ -83.6997864, 42.2803632 ], [ -83.6996144, 42.2798132 ], [ -83.6994521, 42.2791732 ], [ -83.6993609, 42.2787813 ], [ -83.6992835, 42.277869 ], [ -83.700725, 42.2781148 ] ] ] } },
{ "type": "Feature", "properties": { "index": 18, "element": "way", "id": 306855875, "amenity": "school", "ele": null, "gnis:feature_id": null, "name": "Martin Luther King Jr. Elementary School", "addr:city": null, "addr:country": null, "addr:housenumber": "3800", "addr:postcode": null, "addr:state": null, "addr:street": "Waldenwood Drive", "operator": "Ann Arbor Public Schools", "operator:short": "AAPS", "operator:type": "public", "operator:wikidata": "Q4766227", "operator:wikipedia": null, "wikidata": null, "wikipedia": null, "email": null, "fax": null, "phone": null, "short_name": "King Elementary", "website": null, "localwiki": null, "grades": null, "building": null, "check_date": null, "religion": null, "name:etymology:wikidata": "Q8027", "official_name": null, "description": null, "denomination": null, "note": null, "type": null }, "geometry": { "type": "Polygon", "coordinates": [ [ [ -83.6843532, 42.2857688 ], [ -83.6843431, 42.2848008 ], [ -83.6843379, 42.2843165 ], [ -83.6844787, 42.2843337 ], [ -83.6865172, 42.2841591 ], [ -83.687359, 42.284399 ], [ -83.687308, 42.2844888 ], [ -83.6872571, 42.2846029 ], [ -83.6872316, 42.2846853 ], [ -83.6871883, 42.2848345 ], [ -83.6871525, 42.2850107 ], [ -83.6871444, 42.2851625 ], [ -83.6871471, 42.2853629 ], [ -83.6871618, 42.2855455 ], [ -83.6871789, 42.2857187 ], [ -83.6843532, 42.2857688 ] ] ] } },
{ "type": "Feature", "properties": { "index": 19, "element": "way", "id": 306739466, "amenity": "school", "ele": null, "gnis:feature_id": null, "name": "Greenhills School", "addr:city": "Ann Arbor", "addr:country": null, "addr:housenumber": "850", "addr:postcode": "48105", "addr:state": "MI", "addr:street": "Greenhills Drive", "operator": null, "operator:short": null, "operator:type": null, "operator:wikidata": null, "operator:wikipedia": null, "wikidata": "Q5604132", "wikipedia": null, "email": null, "fax": null, "phone": null, "short_name": null, "website": "https://www.greenhillsschool.org/", "localwiki": null, "grades": null, "building": null, "check_date": null, "religion": null, "name:etymology:wikidata": null, "official_name": null, "description": null, "denomination": null, "note": null, "type": null }, "geometry": { "type": "Polygon", "coordinates": [ [ [ -83.6769403, 42.2825574 ], [ -83.6797433, 42.2825974 ], [ -83.67975, 42.2830921 ], [ -83.6797768, 42.285056 ], [ -83.6797191, 42.2852227 ], [ -83.679691, 42.2853537 ], [ -83.6796869, 42.2854539 ], [ -83.6796896, 42.2856116 ], [ -83.6796869, 42.2857753 ], [ -83.6796977, 42.2858934 ], [ -83.6797276, 42.2860416 ], [ -83.6797553, 42.2861484 ], [ -83.6798036, 42.2862823 ], [ -83.6798267, 42.2881847 ], [ -83.6782077, 42.2881297 ], [ -83.6780414, 42.2876911 ], [ -83.6778992, 42.2872447 ], [ -83.6777575, 42.2866534 ], [ -83.6776632, 42.2861375 ], [ -83.6776014, 42.2854946 ], [ -83.6770217, 42.2854817 ], [ -83.6769403, 42.2825574 ] ] ] } },
{ "type": "Feature", "properties": { "index": 20, "element": "way", "id": 306741232, "amenity": "school", "ele": null, "gnis:feature_id": null, "name": "Lawton Elementary School", "addr:city": null, "addr:country": null, "addr:housenumber": "2228", "addr:postcode": null, "addr:state": null, "addr:street": "South Seventh Street", "operator": "Ann Arbor Public Schools", "operator:short": "AAPS", "operator:type": "public", "operator:wikidata": "Q4766227", "operator:wikipedia": null, "wikidata": null, "wikipedia": null, "email": null, "fax": null, "phone": null, "short_name": "Lawton School", "website": null, "localwiki": null, "grades": null, "building": null, "check_date": null, "religion": null, "name:etymology:wikidata": null, "official_name": null, "description": null, "denomination": null, "note": null, "type": null }, "geometry": { "type": "Polygon", "coordinates": [ [ [ -83.7640284, 42.254891 ], [ -83.7639707, 42.2548053 ], [ -83.7637487, 42.2544473 ], [ -83.7629285, 42.2538019 ], [ -83.7631465, 42.2534532 ], [ -83.7627784, 42.2533092 ], [ -83.7628911, 42.2531213 ], [ -83.7629797, 42.2529459 ], [ -83.7630498, 42.2527781 ], [ -83.7637522, 42.2528829 ], [ -83.7642539, 42.2529623 ], [ -83.7648081, 42.2533028 ], [ -83.765136, 42.2535042 ], [ -83.7656004, 42.2537646 ], [ -83.7644474, 42.2547726 ], [ -83.7640284, 42.254891 ] ] ] } },
{ "type": "Feature", "properties": { "index": 21, "element": "way", "id": 128634613, "amenity": "school", "ele": "277", "gnis:feature_id": "2647594", "name": "Pioneer High School", "addr:city": "Ann Arbor", "addr:country": "US", "addr:housenumber": "601", "addr:postcode": "48103", "addr:state": "MI", "addr:street": "West Stadium Boulevard", "operator": "Ann Arbor Public Schools", "operator:short": "AAPS", "operator:type": "public", "operator:wikidata": "Q4766227", "operator:wikipedia": "en:Ann Arbor Public Schools", "wikidata": "Q7196697", "wikipedia": "en:Pioneer High School (Ann Arbor, Michigan)", "email": null, "fax": null, "phone": null, "short_name": null, "website": null, "localwiki": null, "grades": null, "building": null, "check_date": null, "religion": null, "name:etymology:wikidata": null, "official_name": null, "description": null, "denomination": null, "note": null, "type": null }, "geometry": { "type": "Polygon", "coordinates": [ [ [ -83.7504564, 42.2640663 ], [ -83.7503131, 42.2570661 ], [ -83.7504243, 42.2570636 ], [ -83.7514859, 42.2570392 ], [ -83.7522491, 42.2570217 ], [ -83.7528516, 42.2570079 ], [ -83.7529599, 42.2570054 ], [ -83.7568639, 42.2569159 ], [ -83.7605105, 42.2568324 ], [ -83.760574, 42.2568309 ], [ -83.7605669, 42.2570888 ], [ -83.7605166, 42.257331 ], [ -83.7604147, 42.257599 ], [ -83.7603155, 42.2578134 ], [ -83.7601116, 42.2581013 ], [ -83.7598756, 42.2583475 ], [ -83.7595459, 42.2586027 ], [ -83.7584111, 42.2593163 ], [ -83.7580302, 42.2595703 ], [ -83.7577266, 42.2598411 ], [ -83.7575072, 42.2600945 ], [ -83.757247, 42.2605132 ], [ -83.7571338, 42.260792 ], [ -83.7570727, 42.2610909 ], [ -83.757056, 42.2613716 ], [ -83.7570887, 42.2617242 ], [ -83.7571666, 42.262 ], [ -83.7572524, 42.2622263 ], [ -83.7576851, 42.2630612 ], [ -83.7579095, 42.2635205 ], [ -83.7580027, 42.263892 ], [ -83.7504931, 42.2640879 ], [ -83.7504564, 42.2640663 ] ] ] } },
{ "type": "Feature", "properties": { "index": 22, "element": "relation", "id": 19545107, "amenity": "school", "ele": null, "gnis:feature_id": "624656", "name": "Dicken Elementary School", "addr:city": null, "addr:country": null, "addr:housenumber": null, "addr:postcode": null, "addr:state": null, "addr:street": null, "operator": null, "operator:short": null, "operator:type": null, "operator:wikidata": null, "operator:wikipedia": null, "wikidata": null, "wikipedia": null, "email": null, "fax": null, "phone": null, "short_name": "Dicken School", "website": null, "localwiki": null, "grades": null, "building": null, "check_date": null, "religion": null, "name:etymology:wikidata": null, "official_name": null, "description": null, "denomination": null, "note": null, "type": "multipolygon" }, "geometry": { "type": "Polygon", "coordinates": [ [ [ -83.7775295, 42.2636323 ], [ -83.7753453, 42.2636634 ], [ -83.7753352, 42.2632758 ], [ -83.7753247, 42.2627134 ], [ -83.7752862, 42.2613916 ], [ -83.775687, 42.2613859 ], [ -83.7757403, 42.2613851 ], [ -83.7774703, 42.2613605 ], [ -83.7774987, 42.2624505 ], [ -83.7774996, 42.262484 ], [ -83.7775, 42.2625005 ], [ -83.7775007, 42.2625274 ], [ -83.7775295, 42.2636323 ] ] ] } },
{ "type": "Feature", "properties": { "index": 23, "element": "way", "id": 306739838, "amenity": "school", "ele": null, "gnis:feature_id": null, "name": "Eberwhite Elementary School", "addr:city": null, "addr:country": null, "addr:housenumber": null, "addr:postcode": null, "addr:state": null, "addr:street": null, "operator": null, "operator:short": null, "operator:type": null, "operator:wikidata": null, "operator:wikipedia": null, "wikidata": null, "wikipedia": null, "email": null, "fax": null, "phone": null, "short_name": null, "website": null, "localwiki": null, "grades": null, "building": null, "check_date": null, "religion": null, "name:etymology:wikidata": null, "official_name": null, "description": null, "denomination": null, "note": null, "type": null }, "geometry": { "type": "Polygon", "coordinates": [ [ [ -83.76611, 42.27292 ], [ -83.7650663, 42.2729018 ], [ -83.7626388, 42.2728596 ], [ -83.7626337, 42.2713699 ], [ -83.7645103, 42.2713515 ], [ -83.7652344, 42.2713445 ], [ -83.76608, 42.27134 ], [ -83.76611, 42.27292 ] ] ] } },
{ "type": "Feature", "properties": { "index": 24, "element": "way", "id": 306854550, "amenity": "school", "ele": null, "gnis:feature_id": null, "name": "Bach Elementary School", "addr:city": "Ann Arbor", "addr:country": null, "addr:housenumber": "600", "addr:postcode": "48109", "addr:state": "MI", "addr:street": "West Jefferson Street", "operator": "Ann Arbor Public Schools", "operator:short": "AAPS", "operator:type": "public", "operator:wikidata": "Q4766227", "operator:wikipedia": null, "wikidata": null, "wikipedia": null, "email": null, "fax": null, "phone": null, "short_name": "Bach School", "website": null, "localwiki": null, "grades": null, "building": null, "check_date": "2025-08-25", "religion": null, "name:etymology:wikidata": null, "official_name": null, "description": null, "denomination": null, "note": null, "type": null }, "geometry": { "type": "Polygon", "coordinates": [ [ [ -83.7549012, 42.2760728 ], [ -83.7558725, 42.2760586 ], [ -83.7558936, 42.2769452 ], [ -83.7558974, 42.2771189 ], [ -83.7554097, 42.2771255 ], [ -83.7554059, 42.2769353 ], [ -83.754919, 42.276942 ], [ -83.7549012, 42.2760728 ] ] ] } },
{ "type": "Feature", "properties": { "index": 25, "element": "way", "id": 306715092, "amenity": "school", "ele": "291", "gnis:feature_id": null, "name": "Lakewood School", "addr:city": null, "addr:country": null, "addr:housenumber": null, "addr:postcode": null, "addr:state": null, "addr:street": null, "operator": null, "operator:short": null, "operator:type": null, "operator:wikidata": null, "operator:wikipedia": null, "wikidata": null, "wikipedia": null, "email": null, "fax": null, "phone": null, "short_name": null, "website": null, "localwiki": null, "grades": null, "building": null, "check_date": null, "religion": null, "name:etymology:wikidata": null, "official_name": null, "description": null, "denomination": null, "note": null, "type": null }, "geometry": { "type": "Polygon", "coordinates": [ [ [ -83.789217, 42.2777917 ], [ -83.7892185, 42.2773107 ], [ -83.7892174, 42.2763196 ], [ -83.789209, 42.2759489 ], [ -83.791752, 42.2759345 ], [ -83.7917502, 42.2762773 ], [ -83.7917371, 42.277766 ], [ -83.789217, 42.2777917 ] ] ] } },
{ "type": "Feature", "properties": { "index": 26, "element": "way", "id": 306740917, "amenity": "school", "ele": null, "gnis:feature_id": null, "name": "Slauson Middle School", "addr:city": null, "addr:country": null, "addr:housenumber": null, "addr:postcode": null, "addr:state": null, "addr:street": null, "operator": null, "operator:short": null, "operator:type": null, "operator:wikidata": null, "operator:wikipedia": null, "wikidata": null, "wikipedia": null, "email": null, "fax": null, "phone": null, "short_name": null, "website": null, "localwiki": null, "grades": null, "building": null, "check_date": null, "religion": null, "name:etymology:wikidata": null, "official_name": null, "description": null, "denomination": null, "note": null, "type": null }, "geometry": { "type": "Polygon", "coordinates": [ [ [ -83.7601831, 42.2807733 ], [ -83.7601681, 42.2796956 ], [ -83.7598869, 42.2796978 ], [ -83.7598735, 42.2787361 ], [ -83.7603973, 42.2787321 ], [ -83.7612408, 42.2780416 ], [ -83.7630078, 42.277687 ], [ -83.7630105, 42.2778821 ], [ -83.7630206, 42.2786089 ], [ -83.761968, 42.278617 ], [ -83.761549, 42.2786202 ], [ -83.7615519, 42.2788 ], [ -83.761561, 42.2793761 ], [ -83.7615765, 42.2803546 ], [ -83.7611428, 42.2803579 ], [ -83.7611452, 42.280766 ], [ -83.7601831, 42.2807733 ] ] ] } },
{ "type": "Feature", "properties": { "index": 27, "element": "way", "id": 306737801, "amenity": "school", "ele": "263", "gnis:feature_id": null, "name": "Mack School", "addr:city": null, "addr:country": null, "addr:housenumber": null, "addr:postcode": null, "addr:state": null, "addr:street": null, "operator": null, "operator:short": null, "operator:type": null, "operator:wikidata": null, "operator:wikipedia": null, "wikidata": null, "wikipedia": null, "email": null, "fax": null, "phone": null, "short_name": null, "website": null, "localwiki": null, "grades": null, "building": null, "check_date": null, "religion": null, "name:etymology:wikidata": null, "official_name": null, "description": null, "denomination": null, "note": null, "type": null }, "geometry": { "type": "Polygon", "coordinates": [ [ [ -83.7586407, 42.2870113 ], [ -83.7586257, 42.2862214 ], [ -83.7603987, 42.2869023 ], [ -83.7605913, 42.287014 ], [ -83.7606824, 42.2885835 ], [ -83.7591742, 42.2886167 ], [ -83.7591644, 42.2878853 ], [ -83.7582057, 42.2878907 ], [ -83.7581898, 42.2873555 ], [ -83.7581851, 42.2871982 ], [ -83.7581797, 42.2870159 ], [ -83.7586407, 42.2870113 ] ] ] } },
{ "type": "Feature", "properties": { "index": 28, "element": "node", "id": 353932769, "amenity": "school", "ele": "289", "gnis:feature_id": "626510", "name": "Fritz School", "addr:city": null, "addr:country": null, "addr:housenumber": null, "addr:postcode": null, "addr:state": null, "addr:street": null, "operator": null, "operator:short": null, "operator:type": null, "operator:wikidata": null, "operator:wikipedia": null, "wikidata": null, "wikipedia": null, "email": null, "fax": null, "phone": null, "short_name": null, "website": null, "localwiki": null, "grades": null, "building": null, "check_date": null, "religion": null, "name:etymology:wikidata": null, "official_name": null, "description": null, "denomination": null, "note": null, "type": null }, "geometry": { "type": "Point", "coordinates": [ -83.7804972, 42.2894821 ] } },
{ "type": "Feature", "properties": { "index": 29, "element": "way", "id": 306715087, "amenity": "school", "ele": "291", "gnis:feature_id": null, "name": "Haisley Elementary School", "addr:city": "Ann Arbor", "addr:country": null, "addr:housenumber": "825", "addr:postcode": "48103", "addr:state": "MI", "addr:street": "Duncan Street", "operator": "Ann Arbor Public Schools", "operator:short": "AAPS", "operator:type": "public", "operator:wikidata": "Q4766227", "operator:wikipedia": null, "wikidata": null, "wikipedia": null, "email": null, "fax": null, "phone": "+1-734-994-1937", "short_name": null, "website": "http://www.aaps.k12.mi.us/haisley.home/home", "localwiki": null, "grades": null, "building": null, "check_date": null, "religion": null, "name:etymology:wikidata": null, "official_name": null, "description": null, "denomination": null, "note": null, "type": null }, "geometry": { "type": "Polygon", "coordinates": [ [ [ -83.7755831, 42.2888166 ], [ -83.7779502, 42.2887743 ], [ -83.777974, 42.2895887 ], [ -83.7779942, 42.2902783 ], [ -83.7756096, 42.2903216 ], [ -83.7755831, 42.2888166 ] ] ] } },
{ "type": "Feature", "properties": { "index": 30, "element": "way", "id": 306854553, "amenity": "school", "ele": "275", "gnis:feature_id": null, "name": "Angell School", "addr:city": null, "addr:country": null, "addr:housenumber": null, "addr:postcode": null, "addr:state": null, "addr:street": null, "operator": "Ann Arbor Public Schools", "operator:short": "AAPS", "operator:type": "public", "operator:wikidata": "Q4766227", "operator:wikipedia": null, "wikidata": null, "wikipedia": null, "email": null, "fax": null, "phone": null, "short_name": null, "website": "https://www.a2schools.org/angell", "localwiki": null, "grades": null, "building": null, "check_date": null, "religion": "none", "name:etymology:wikidata": null, "official_name": null, "description": null, "denomination": null, "note": null, "type": null }, "geometry": { "type": "Polygon", "coordinates": [ [ [ -83.7272279, 42.2750157 ], [ -83.7272137, 42.2741501 ], [ -83.727664, 42.2739222 ], [ -83.7277489, 42.2740116 ], [ -83.7280141, 42.2742302 ], [ -83.7282576, 42.2743874 ], [ -83.7286062, 42.2746006 ], [ -83.728646, 42.2749999 ], [ -83.7272279, 42.2750157 ] ] ] } },
{ "type": "Feature", "properties": { "index": 31, "element": "way", "id": 256670716, "amenity": "school", "ele": "256", "gnis:feature_id": null, "name": "Community High School", "addr:city": "Ann Arbor", "addr:country": null, "addr:housenumber": "401", "addr:postcode": "48104", "addr:state": "MI", "addr:street": "North Division Street", "operator": "Ann Arbor Public Schools", "operator:short": "AAPS", "operator:type": "public", "operator:wikidata": "Q4766227", "operator:wikipedia": null, "wikidata": "Q5154774", "wikipedia": "en:Community High School (Ann Arbor, Michigan)", "email": null, "fax": null, "phone": null, "short_name": null, "website": "http://www.a2community.org/community/", "localwiki": "ann-arbor/Community_High_School", "grades": null, "building": null, "check_date": null, "religion": null, "name:etymology:wikidata": null, "official_name": null, "description": null, "denomination": null, "note": null, "type": null }, "geometry": { "type": "Polygon", "coordinates": [ [ [ -83.7438516, 42.2836249 ], [ -83.745781, 42.283663 ], [ -83.7457574, 42.2841029 ], [ -83.7457418, 42.2841173 ], [ -83.7456688, 42.2841848 ], [ -83.7456271, 42.2842234 ], [ -83.7454977, 42.2843476 ], [ -83.7448035, 42.28433 ], [ -83.7443874, 42.2843194 ], [ -83.7438234, 42.2842986 ], [ -83.7438516, 42.2836249 ] ] ] } },
{ "type": "Feature", "properties": { "index": 32, "element": "way", "id": 193502047, "amenity": "school", "ele": null, "gnis:feature_id": null, "name": "Saint Thomas School", "addr:city": null, "addr:country": null, "addr:housenumber": null, "addr:postcode": null, "addr:state": null, "addr:street": null, "operator": null, "operator:short": null, "operator:type": null, "operator:wikidata": null, "operator:wikipedia": null, "wikidata": null, "wikipedia": null, "email": null, "fax": null, "phone": null, "short_name": null, "website": null, "localwiki": null, "grades": null, "building": null, "check_date": null, "religion": null, "name:etymology:wikidata": null, "official_name": null, "description": null, "denomination": null, "note": null, "type": null }, "geometry": { "type": "Polygon", "coordinates": [ [ [ -83.7411574, 42.2854779 ], [ -83.7413957, 42.2855147 ], [ -83.7415985, 42.2855258 ], [ -83.7415638, 42.2863603 ], [ -83.7412693, 42.2863558 ], [ -83.7408995, 42.2862859 ], [ -83.7411574, 42.2854779 ] ] ] } },
{ "type": "Feature", "properties": { "index": 33, "element": "way", "id": 306738366, "amenity": "school", "ele": "258", "gnis:feature_id": null, "name": "Ann Arbor STEAM", "addr:city": "Ann Arbor", "addr:country": null, "addr:housenumber": "912", "addr:postcode": "48105", "addr:state": "MI", "addr:street": "Barton Drive", "operator": null, "operator:short": null, "operator:type": null, "operator:wikidata": null, "operator:wikipedia": null, "wikidata": null, "wikipedia": null, "email": null, "fax": null, "phone": null, "short_name": null, "website": "https://www.a2schools.org/a2steam", "localwiki": null, "grades": null, "building": null, "check_date": null, "religion": null, "name:etymology:wikidata": null, "official_name": null, "description": null, "denomination": null, "note": null, "type": null }, "geometry": { "type": "Polygon", "coordinates": [ [ [ -83.7346672, 42.298045 ], [ -83.7347675, 42.2994446 ], [ -83.7328632, 42.2995114 ], [ -83.7327408, 42.2992301 ], [ -83.7322676, 42.2981422 ], [ -83.7346672, 42.298045 ] ] ] } },
{ "type": "Feature", "properties": { "index": 34, "element": "way", "id": 660727144, "amenity": "school", "ele": null, "gnis:feature_id": null, "name": "Rudolf Steiner School", "addr:city": "Ann Arbor", "addr:country": null, "addr:housenumber": "2230", "addr:postcode": "48105", "addr:state": "MI", "addr:street": "Pontiac Trail", "operator": null, "operator:short": null, "operator:type": null, "operator:wikidata": null, "operator:wikipedia": null, "wikidata": null, "wikipedia": null, "email": null, "fax": null, "phone": "+1-734-669-9394", "short_name": null, "website": "https://www.steinerschool.org/", "localwiki": null, "grades": null, "building": null, "check_date": null, "religion": null, "name:etymology:wikidata": null, "official_name": null, "description": null, "denomination": null, "note": "Includes a bit of forest at the east end of the property; verified via property records at https://gisappsecure.ewashtenaw.org/mapwashtenaw/", "type": null }, "geometry": { "type": "Polygon", "coordinates": [ [ [ -83.7348765, 42.3058036 ], [ -83.7339376, 42.3058273 ], [ -83.733209, 42.305785 ], [ -83.7332097, 42.3056928 ], [ -83.7324443, 42.3056577 ], [ -83.7321306, 42.3056433 ], [ -83.7317268, 42.3056248 ], [ -83.731716, 42.3049994 ], [ -83.7324259, 42.3049853 ], [ -83.7349069, 42.3049714 ], [ -83.7348765, 42.3058036 ] ] ] } },
{ "type": "Feature", "properties": { "index": 35, "element": "way", "id": 306715088, "amenity": "school", "ele": "288", "gnis:feature_id": null, "name": "Abbot Elementary School", "addr:city": null, "addr:country": null, "addr:housenumber": null, "addr:postcode": null, "addr:state": null, "addr:street": null, "operator": null, "operator:short": null, "operator:type": null, "operator:wikidata": null, "operator:wikipedia": null, "wikidata": null, "wikipedia": null, "email": null, "fax": null, "phone": null, "short_name": "Abbot School", "website": null, "localwiki": null, "grades": null, "building": null, "check_date": null, "religion": null, "name:etymology:wikidata": null, "official_name": null, "description": null, "denomination": null, "note": null, "type": null }, "geometry": { "type": "Polygon", "coordinates": [ [ [ -83.7844467, 42.2951337 ], [ -83.784529, 42.2942491 ], [ -83.7832247, 42.2942363 ], [ -83.7831077, 42.2938484 ], [ -83.785257, 42.2933228 ], [ -83.7851227, 42.2929205 ], [ -83.7853602, 42.2928795 ], [ -83.7856179, 42.2928611 ], [ -83.7858645, 42.2928537 ], [ -83.7860951, 42.2928597 ], [ -83.7864698, 42.2928715 ], [ -83.7863792, 42.2939478 ], [ -83.7865335, 42.2940793 ], [ -83.7867216, 42.2942395 ], [ -83.7858098, 42.294698 ], [ -83.78501, 42.2954254 ], [ -83.7844467, 42.2951337 ] ] ] } },
{ "type": "Feature", "properties": { "index": 36, "element": "way", "id": 128638305, "amenity": "school", "ele": "299", "gnis:feature_id": "626294", "name": "Forsythe Middle School", "addr:city": "Ann Arbor", "addr:country": null, "addr:housenumber": "1655", "addr:postcode": "48103", "addr:state": "MI", "addr:street": "Newport Road", "operator": "Ann Arbor Public Schools", "operator:short": "AAPS", "operator:type": "public", "operator:wikidata": "Q4766227", "operator:wikipedia": null, "wikidata": null, "wikipedia": null, "email": "forsythe@a2schools.org", "fax": "+1-734-994-5749", "phone": "+1-734-994-1985", "short_name": "Forsythe School", "website": "https://forsythe.a2schools.org/", "localwiki": null, "grades": null, "building": null, "check_date": null, "religion": null, "name:etymology:wikidata": null, "official_name": null, "description": null, "denomination": null, "note": null, "type": null }, "geometry": { "type": "Polygon", "coordinates": [ [ [ -83.7658306, 42.2954519 ], [ -83.7670135, 42.2954408 ], [ -83.7670071, 42.2949535 ], [ -83.7690715, 42.2949236 ], [ -83.7690671, 42.2944548 ], [ -83.7691218, 42.2944547 ], [ -83.7691398, 42.2949247 ], [ -83.7706465, 42.2949063 ], [ -83.7707087, 42.2963517 ], [ -83.7707615, 42.2974777 ], [ -83.7706344, 42.2975006 ], [ -83.7679951, 42.2975403 ], [ -83.7678417, 42.2977129 ], [ -83.7678123, 42.2977663 ], [ -83.7677533, 42.297799 ], [ -83.7676593, 42.2978289 ], [ -83.7668761, 42.2978478 ], [ -83.7668606, 42.2975224 ], [ -83.7659808, 42.2975422 ], [ -83.7658306, 42.2954519 ] ] ] } },
{ "type": "Feature", "properties": { "index": 37, "element": "way", "id": 128638311, "amenity": "school", "ele": "296", "gnis:feature_id": "1616625", "name": "Wines Elementary School", "addr:city": "Ann Arbor", "addr:country": null, "addr:housenumber": "1701", "addr:postcode": "48103", "addr:state": "MI", "addr:street": "Newport Road", "operator": "Ann Arbor Public Schools", "operator:short": "AAPS", "operator:type": "public", "operator:wikidata": "Q4766227", "operator:wikipedia": null, "wikidata": null, "wikipedia": null, "email": "wines@a2schools.org", "fax": "+1-734-996-3023", "phone": "+1-734-994-1973", "short_name": "Wines School", "website": "https://wines.a2schools.org/", "localwiki": null, "grades": null, "building": null, "check_date": null, "religion": null, "name:etymology:wikidata": null, "official_name": null, "description": null, "denomination": null, "note": null, "type": null }, "geometry": { "type": "Polygon", "coordinates": [ [ [ -83.7665038, 42.2986191 ], [ -83.7664845, 42.2980739 ], [ -83.7668761, 42.2979629 ], [ -83.7679978, 42.2979347 ], [ -83.7679951, 42.2975403 ], [ -83.7693532, 42.2975104 ], [ -83.7706344, 42.2975006 ], [ -83.7706982, 42.2990956 ], [ -83.7697066, 42.2994515 ], [ -83.76855774179981, 42.299152914522971 ], [ -83.768528, 42.298652 ], [ -83.7668983692853, 42.298721647606186 ], [ -83.7665038, 42.2986191 ] ] ] } },
{ "type": "Feature", "properties": { "index": 38, "element": "way", "id": 306130691, "amenity": "school", "ele": null, "gnis:feature_id": null, "name": "Skyline High School", "addr:city": "Ann Arbor", "addr:country": null, "addr:housenumber": "2552", "addr:postcode": "48103", "addr:state": "MI", "addr:street": "North Maple Road", "operator": "Ann Arbor Public Schools", "operator:short": "AAPS", "operator:type": "public", "operator:wikidata": "Q4766227", "operator:wikipedia": null, "wikidata": null, "wikipedia": null, "email": "skyline@a2schools.org", "fax": "+1-734-994-7028", "phone": "+1-734-994-6515", "short_name": null, "website": "https://skyline.a2schools.org/", "localwiki": null, "grades": null, "building": null, "check_date": null, "religion": null, "name:etymology:wikidata": null, "official_name": null, "description": null, "denomination": null, "note": null, "type": null }, "geometry": { "type": "Polygon", "coordinates": [ [ [ -83.7734898, 42.3079187 ], [ -83.7733237, 42.3043263 ], [ -83.7733036, 42.3038917 ], [ -83.7751962, 42.303754 ], [ -83.7755375, 42.3029165 ], [ -83.7764654, 42.3026757 ], [ -83.777306, 42.3024575 ], [ -83.7795089, 42.3024575 ], [ -83.7808896, 42.3031345 ], [ -83.7809068, 42.3051817 ], [ -83.7808827, 42.305269 ], [ -83.7808451, 42.3053285 ], [ -83.780762, 42.305392 ], [ -83.7807271, 42.3054277 ], [ -83.7807432, 42.3057014 ], [ -83.7808183, 42.3057391 ], [ -83.7808719, 42.3057808 ], [ -83.7809524, 42.3060248 ], [ -83.781073, 42.3065976 ], [ -83.7811533, 42.3078384 ], [ -83.7734898, 42.3079187 ] ] ] } },
{ "type": "Feature", "properties": { "index": 39, "element": "way", "id": 220396405, "amenity": "school", "ele": null, "gnis:feature_id": null, "name": "Rudolf Steiner School", "addr:city": "Ann Arbor", "addr:country": null, "addr:housenumber": "2775", "addr:postcode": "48103", "addr:state": "MI", "addr:street": "Newport Road", "operator": null, "operator:short": null, "operator:type": null, "operator:wikidata": null, "operator:wikipedia": null, "wikidata": null, "wikipedia": null, "email": null, "fax": null, "phone": "+1-734-995-4141", "short_name": null, "website": "https://www.steinerschool.org/", "localwiki": null, "grades": null, "building": null, "check_date": null, "religion": null, "name:etymology:wikidata": null, "official_name": null, "description": null, "denomination": null, "note": null, "type": null }, "geometry": { "type": "Polygon", "coordinates": [ [ [ -83.771367, 42.3127043 ], [ -83.7718606, 42.3125655 ], [ -83.771958904482929, 42.312548006117503 ], [ -83.771972, 42.312653 ], [ -83.772275974214352, 42.315142035612411 ], [ -83.771528, 42.3151598 ], [ -83.771367, 42.3127043 ] ] ] } },
{ "type": "Feature", "properties": { "index": 40, "element": "way", "id": 303366596, "amenity": "school", "ele": null, "gnis:feature_id": null, "name": "Michigan Islamic Academy", "addr:city": null, "addr:country": null, "addr:housenumber": null, "addr:postcode": null, "addr:state": null, "addr:street": null, "operator": "Muslim Community Association", "operator:short": null, "operator:type": null, "operator:wikidata": null, "operator:wikipedia": null, "wikidata": "Q22059537", "wikipedia": null, "email": null, "fax": null, "phone": null, "short_name": "MIA", "website": null, "localwiki": null, "grades": null, "building": "school", "check_date": null, "religion": null, "name:etymology:wikidata": null, "official_name": null, "description": null, "denomination": null, "note": null, "type": null }, "geometry": { "type": "Polygon", "coordinates": [ [ [ -83.7147774, 42.3013929 ], [ -83.7148244, 42.3013926 ], [ -83.714836, 42.3018497 ], [ -83.7146871, 42.3018499 ], [ -83.7145986, 42.30185 ], [ -83.7145919, 42.3015624 ], [ -83.7144982, 42.3015623 ], [ -83.7144954, 42.3014974 ], [ -83.7144338, 42.3014968 ], [ -83.7144338, 42.301482 ], [ -83.7144338, 42.3014611 ], [ -83.7144942, 42.3014595 ], [ -83.7144922, 42.301397 ], [ -83.7147076, 42.3013926 ], [ -83.71472, 42.3013498 ], [ -83.7147925, 42.3013535 ], [ -83.7147774, 42.3013929 ] ] ] } },
{ "type": "Feature", "properties": { "index": 41, "element": "way", "id": 303238151, "amenity": "school", "ele": "278", "gnis:feature_id": "1614846", "name": "Thurston Elementary School", "addr:city": "Ann Arbor", "addr:country": null, "addr:housenumber": "2300", "addr:postcode": "48105", "addr:state": "MI", "addr:street": "Prairie Street", "operator": "Ann Arbor Public Schools", "operator:short": "AAPS", "operator:type": "public", "operator:wikidata": "Q4766227", "operator:wikipedia": null, "wikidata": "Q7799444", "wikipedia": null, "email": "thurston@a2schools.org", "fax": "+1-734-994-1742", "phone": "+1-734-994-1970", "short_name": "Thurston School", "website": "https://thurston.a2schools.org/", "localwiki": null, "grades": "K-5", "building": null, "check_date": null, "religion": null, "name:etymology:wikidata": null, "official_name": null, "description": null, "denomination": null, "note": null, "type": null }, "geometry": { "type": "Polygon", "coordinates": [ [ [ -83.7027878, 42.3062472 ], [ -83.7024187, 42.3063694 ], [ -83.7025244, 42.3068761 ], [ -83.7025664, 42.3077847 ], [ -83.7001138, 42.307783 ], [ -83.7000835, 42.3057355 ], [ -83.7018444, 42.3057422 ], [ -83.7022757, 42.3056226 ], [ -83.7027878, 42.3062472 ] ] ] } },
{ "type": "Feature", "properties": { "index": 42, "element": "way", "id": 306739218, "amenity": "school", "ele": "284", "gnis:feature_id": null, "name": "Clague Middle School", "addr:city": null, "addr:country": null, "addr:housenumber": "2616", "addr:postcode": null, "addr:state": null, "addr:street": "Nixon Road", "operator": "Ann Arbor Public Schools", "operator:short": null, "operator:type": null, "operator:wikidata": null, "operator:wikipedia": null, "wikidata": null, "wikipedia": null, "email": null, "fax": null, "phone": null, "short_name": "Clague School", "website": null, "localwiki": null, "grades": null, "building": null, "check_date": null, "religion": null, "name:etymology:wikidata": null, "official_name": null, "description": null, "denomination": null, "note": null, "type": null }, "geometry": { "type": "Polygon", "coordinates": [ [ [ -83.7057845, 42.3106745 ], [ -83.7074424, 42.3106496 ], [ -83.7074272, 42.3119948 ], [ -83.7062917, 42.3120038 ], [ -83.7062794, 42.312765 ], [ -83.7027941, 42.3128179 ], [ -83.7027182, 42.310079 ], [ -83.7050208, 42.310044 ], [ -83.7057626, 42.3104686 ], [ -83.7057845, 42.3106745 ] ] ] } },
{ "type": "Feature", "properties": { "index": 43, "element": "way", "id": 418099204, "amenity": "school", "ele": null, "gnis:feature_id": null, "name": "Logan Elementary School", "addr:city": "Ann Arbor", "addr:country": null, "addr:housenumber": "2685", "addr:postcode": "48105", "addr:state": "MI", "addr:street": "Traver Boulevard", "operator": "Ann Arbor Public Schools", "operator:short": "AAPS", "operator:type": null, "operator:wikidata": null, "operator:wikipedia": null, "wikidata": null, "wikipedia": null, "email": null, "fax": null, "phone": null, "short_name": "Logan School", "website": null, "localwiki": null, "grades": null, "building": null, "check_date": null, "religion": null, "name:etymology:wikidata": null, "official_name": null, "description": null, "denomination": null, "note": null, "type": null }, "geometry": { "type": "Polygon", "coordinates": [ [ [ -83.7096297, 42.3116779 ], [ -83.7097712, 42.3123814 ], [ -83.7102224, 42.3127112 ], [ -83.711258, 42.3126781 ], [ -83.7112346, 42.3121401 ], [ -83.7117396, 42.3121052 ], [ -83.7117814, 42.3135398 ], [ -83.71131, 42.3135547 ], [ -83.7085281, 42.3136426 ], [ -83.7085209, 42.313116 ], [ -83.7085149, 42.3126812 ], [ -83.7085081, 42.3121836 ], [ -83.7086594, 42.3121808 ], [ -83.7086476, 42.3117588 ], [ -83.7096297, 42.3116779 ] ] ] } }
]
}
